[
    {
        "Altitude(m)": 554271.1238416646,
        "Argument of Periapsis(deg)": 0.026491964442854003,
        "Eccentricity": 0.0,
        "Inclination(deg)": 53.0,
        "Latitude(deg)": 24.581633129976463,
        "Longitude(deg)": -173.13495916355504,
        "Mean Anomaly(deg)": 31.275571470310258,
        "RAAN(deg)": 269.96057347411204,
        "Satellite Name": "Starlink Shell 1 1209",
        "Satellite Number": 1209,
        "Semi-Major Axis(m)": 6931778.249405717,
        "Time(s)": 760
    },
    {
        "Altitude(m)": 554329.2131137999,
        "Argument of Periapsis(deg)": 0.02684054292236524,
        "Eccentricity": 0.0,
        "Inclination(deg)": 53.0,
        "Latitude(deg)": 25.053704602073154,
        "Longitude(deg)": -172.71943634193153,
        "Mean Anomaly(deg)": 31.902402673867105,
        "RAAN(deg)": 269.9600547040346,
        "Satellite Name": "Starlink Shell 1 1209",
        "Satellite Number": 1209,
        "Semi-Major Axis(m)": 6931778.249405717,
        "Time(s)": 770
    },
    {
        "Altitude(m)": 554388.9138387145,
        "Argument of Periapsis(deg)": 0.027189121401876473,
        "Eccentricity": 0.0,
        "Inclination(deg)": 53.0,
        "Latitude(deg)": 25.52433147312549,
        "Longitude(deg)": -172.30040869502255,
        "Mean Anomaly(deg)": 32.52923387742375,
        "RAAN(deg)": 269.95953593395717,
        "Satellite Name": "Starlink Shell 1 1209",
        "Satellite Number": 1209,
        "Semi-Major Axis(m)": 6931778.249405717,
        "Time(s)": 780
    },
    {
        "Altitude(m)": 554450.177220162,
        "Argument of Periapsis(deg)": 0.02753769988138771,
        "Eccentricity": 0.0,
        "Inclination(deg)": 53.0,
        "Latitude(deg)": 25.99347192530308,
        "Longitude(deg)": -171.8777839992841,
        "Mean Anomaly(deg)": 33.15606508098045,
        "RAAN(deg)": 269.95901716387965,
        "Satellite Name": "Starlink Shell 1 1209",
        "Satellite Number": 1209,
        "Semi-Major Axis(m)": 6931778.249405717,
        "Time(s)": 790
    },
    {
        "Altitude(m)": 554512.9538551029,
        "Argument of Periapsis(deg)": 0.02788627836089895,
        "Eccentricity": 0.0,
        "Inclination(deg)": 53.0,
        "Latitude(deg)": 26.461083259789238,
        "Longitude(deg)": -171.45146924944063,
        "Mean Anomaly(deg)": 33.782896284537195,
        "RAAN(deg)": 269.95849839380213,
        "Satellite Name": "Starlink Shell 1 1209",
        "Satellite Number": 1209,
        "Semi-Major Axis(m)": 6931778.249405717,
        "Time(s)": 800
    },
    {
        "Altitude(m)": 554577.1937602527,
        "Argument of Periapsis(deg)": 0.02823485684041019,
        "Eccentricity": 0.0,
        "Inclination(deg)": 53.0,
        "Latitude(deg)": 26.92712186926447,
        "Longitude(deg)": -171.0213701424642,
        "Mean Anomaly(deg)": 34.409727488093935,
        "RAAN(deg)": 269.9579796237247,
        "Satellite Name": "Starlink Shell 1 1209",
        "Satellite Number": 1209,
        "Semi-Major Axis(m)": 6931778.249405717,
        "Time(s)": 810
    },
    {
        "Altitude(m)": 554642.846398908,
        "Argument of Periapsis(deg)": 0.028583435319921423,
        "Eccentricity": 0.0,
        "Inclination(deg)": 53.0,
        "Latitude(deg)": 27.391543209868537,
        "Longitude(deg)": -170.58739056352715,
        "Mean Anomaly(deg)": 35.03655869165058,
        "RAAN(deg)": 269.95746085364726,
        "Satellite Name": "Starlink Shell 1 1209",
        "Satellite Number": 1209,
        "Semi-Major Axis(m)": 6931778.249405717,
        "Time(s)": 820
    },
    {
        "Altitude(m)": 554709.8607079897,
        "Argument of Periapsis(deg)": 0.028932013799432665,
        "Eccentricity": 0.0,
        "Inclination(deg)": 53.0,
        "Latitude(deg)": 27.854301772651148,
        "Longitude(deg)": -170.14943358698878,
        "Mean Anomaly(deg)": 35.663389895207274,
        "RAAN(deg)": 269.95694208356974,
        "Satellite Name": "Starlink Shell 1 1209",
        "Satellite Number": 1209,
        "Semi-Major Axis(m)": 6931778.249405717,
        "Time(s)": 830
    },
    {
        "Altitude(m)": 554778.185125334,
        "Argument of Periapsis(deg)": 0.029280592278943897,
        "Eccentricity": 0.0,
        "Inclination(deg)": 53.0,
        "Latitude(deg)": 28.31535105451641,
        "Longitude(deg)": -169.7074009668733,
        "Mean Anomaly(deg)": 36.29022109876403,
        "RAAN(deg)": 269.9564233134923,
        "Satellite Name": "Starlink Shell 1 1209",
        "Satellite Number": 1209,
        "Semi-Major Axis(m)": 6931778.249405717,
        "Time(s)": 840
    },
    {
        "Altitude(m)": 554847.7676171507,
        "Argument of Periapsis(deg)": 0.029629170758455132,
        "Eccentricity": 0.0,
        "Inclination(deg)": 53.0,
        "Latitude(deg)": 28.77464352867698,
        "Longitude(deg)": -169.26119262992796,
        "Mean Anomaly(deg)": 36.917052302320776,
        "RAAN(deg)": 269.9559045434148,
        "Satellite Name": "Starlink Shell 1 1209",
        "Satellite Number": 1209,
        "Semi-Major Axis(m)": 6931778.249405717,
        "Time(s)": 850
    },
    {
        "Altitude(m)": 554918.5557057129,
        "Argument of Periapsis(deg)": 0.02997774923796637,
        "Eccentricity": 0.0,
        "Inclination(deg)": 53.0,
        "Latitude(deg)": 29.232130614637054,
        "Longitude(deg)": -168.81070785246314,
        "Mean Anomaly(deg)": 37.54388350587747,
        "RAAN(deg)": 269.9553857733373,
        "Satellite Name": "Starlink Shell 1 1209",
        "Satellite Number": 1209,
        "Semi-Major Axis(m)": 6931778.249405717,
        "Time(s)": 860
    },
    {
        "Altitude(m)": 554990.4964971845,
        "Argument of Periapsis(deg)": 0.030326327717477602,
        "Eccentricity": 0.0,
        "Inclination(deg)": 53.0,
        "Latitude(deg)": 29.687762647716546,
        "Longitude(deg)": -168.35584391879496,
        "Mean Anomaly(deg)": 38.170714709434165,
        "RAAN(deg)": 269.9548670032599,
        "Satellite Name": "Starlink Shell 1 1209",
        "Satellite Number": 1209,
        "Semi-Major Axis(m)": 6931778.249405717,
        "Time(s)": 870
    },
    {
        "Altitude(m)": 555063.5367096527,
        "Argument of Periapsis(deg)": 0.030674906196988847,
        "Eccentricity": 0.0,
        "Inclination(deg)": 53.0,
        "Latitude(deg)": 30.14148884814779,
        "Longitude(deg)": -167.89649730446575,
        "Mean Anomaly(deg)": 38.797545912990955,
        "RAAN(deg)": 269.9543482331824,
        "Satellite Name": "Starlink Shell 1 1209",
        "Satellite Number": 1209,
        "Semi-Major Axis(m)": 6931778.249405717,
        "Time(s)": 880
    },
    {
        "Altitude(m)": 555137.622701263,
        "Argument of Periapsis(deg)": 0.031023484676500086,
        "Eccentricity": 0.0,
        "Inclination(deg)": 53.0,
        "Latitude(deg)": 30.59325728976567,
        "Longitude(deg)": -167.43256318209276,
        "Mean Anomaly(deg)": 39.42437711654765,
        "RAAN(deg)": 269.9538294631049,
        "Satellite Name": "Starlink Shell 1 1209",
        "Satellite Number": 1209,
        "Semi-Major Axis(m)": 6931778.249405717,
        "Time(s)": 890
    },
    {
        "Altitude(m)": 555212.700498532,
        "Argument of Periapsis(deg)": 0.03137206315601132,
        "Eccentricity": 0.0,
        "Inclination(deg)": 53.0,
        "Latitude(deg)": 31.043014868325365,
        "Longitude(deg)": -166.9639349311149,
        "Mean Anomaly(deg)": 40.05120832010435,
        "RAAN(deg)": 269.9533106930275,
        "Satellite Name": "Starlink Shell 1 1209",
        "Satellite Number": 1209,
        "Semi-Major Axis(m)": 6931778.249405717,
        "Time(s)": 900
    },
    {
        "Altitude(m)": 555288.715824749,
        "Argument of Periapsis(deg)": 0.03172064163552255,
        "Eccentricity": 0.0,
        "Inclination(deg)": 53.0,
        "Latitude(deg)": 31.49070726948624,
        "Longitude(deg)": -166.49050516462515,
        "Mean Anomaly(deg)": 40.67803952366105,
        "RAAN(deg)": 269.95279192295,
        "Satellite Name": "Starlink Shell 1 1209",
        "Satellite Number": 1209,
        "Semi-Major Axis(m)": 6931778.249405717,
        "Time(s)": 910
    },
    {
        "Altitude(m)": 555365.6141284995,
        "Argument of Periapsis(deg)": 0.0320692201150338,
        "Eccentricity": 0.0,
        "Inclination(deg)": 53.0,
        "Latitude(deg)": 31.936278936499015,
        "Longitude(deg)": -166.01216524787287,
        "Mean Anomaly(deg)": 41.304870727217796,
        "RAAN(deg)": 269.95227315287246,
        "Satellite Name": "Starlink Shell 1 1209",
        "Satellite Number": 1209,
        "Semi-Major Axis(m)": 6931778.249405717,
        "Time(s)": 920
    },
    {
        "Altitude(m)": 555443.3406122687,
        "Argument of Periapsis(deg)": 0.032417798594545036,
        "Eccentricity": 0.0,
        "Inclination(deg)": 53.0,
        "Latitude(deg)": 32.37967303764442,
        "Longitude(deg)": -165.52880482166555,
        "Mean Anomaly(deg)": 41.93170193077444,
        "RAAN(deg)": 269.951754382795,
        "Satellite Name": "Starlink Shell 1 1209",
        "Satellite Number": 1209,
        "Semi-Major Axis(m)": 6931778.249405717,
        "Time(s)": 930
    },
    {
        "Altitude(m)": 555521.8402611255,
        "Argument of Periapsis(deg)": 0.03276637707405627,
        "Eccentricity": 0.0,
        "Inclination(deg)": 53.0,
        "Latitude(deg)": 32.820831433481125,
        "Longitude(deg)": -165.04031284391073,
        "Mean Anomaly(deg)": 42.558533134331135,
        "RAAN(deg)": 269.95123561271754,
        "Satellite Name": "Starlink Shell 1 1209",
        "Satellite Number": 1209,
        "Semi-Major Axis(m)": 6931778.249405717,
        "Time(s)": 940
    }
]